1 28361U 04023A   21001.84685541  .00000078  00000-0  00000+0 0  9998
2 28361  54.0845 167.4180 0138982 242.8039 136.8297  2.00563295121107
1 28361U 04023A   21001.84685541  .00000078  00000-0  00000-0 0  9999
2 28361  54.0845 167.4180 0138982 242.8039 136.8297  2.00563295121084
1 28361U 04023A   21002.31103451  .00000080  00000-0  00000-0 0  9990
2 28361  54.0846 167.3992 0138989 242.8184 111.9779  2.00563311121081
1 28361U 04023A   21002.85039597  .00000084  00000-0  00000-0 0  9992
2 28361  54.0847 167.3774 0139000 242.8359 141.4088  2.00563331121105
1 28361U 04023A   21003.31608567  .00000087  00000-0  00000-0 0  9996
2 28361  54.0848 167.3585 0139010 242.8507 117.6475  2.00563349121117
1 28361U 04023A   21003.84342590  .00000090  00000-0  00000-0 0  9999
2 28361  54.0849 167.3371 0139020 242.8681 138.3987  2.00563369121126
1 28361U 04023A   21004.33725500  .00000093  00000-0  00000-0 0  9993
2 28361  54.0849 167.3172 0139031 242.8840 134.9544  2.00563389121138
1 28361U 04023A   21005.55894907  .00000098  00000-0  00000-0 0  9991
2 28361  54.0851 167.2676 0139052 242.9245 297.0444  2.00563439121150
1 28361U 04023A   21006.38576736  .00000097  00000-0  00000-0 0  9999
2 28361  54.0852 167.2341 0139072 242.9514 174.0260  2.00563479121177
1 28361U 04023A   21006.83952525  .00000095  00000-0  00000-0 0  9991
2 28361  54.0852 167.2158 0139080 242.9654 141.6502  2.00563501121183
1 28361U 04023A   21007.83796089  .00000087  00000-0  00000-0 0  9994
2 28361  54.0853 167.1753 0139100 242.9969 142.5448  2.00563555121207
1 28361U 04023A   21008.32033220  .00000081  00000-0  00000-0 0  9994
2 28361  54.0854 167.1558 0139109 243.0118 130.8288  2.00563582121211
1 28361U 04023A   21008.82954243  .00000074  00000-0  00000-0 0  9998
2 28361  54.0854 167.1351 0139118 243.0276 138.4912  2.00563612121220
1 28361U 04023A   21010.04522631  .00000053  00000-0  00000-0 0  9994
2 28361  54.0856 167.0859 0139138 243.0656 296.2450  2.00563686121241
1 28361U 04023A   21011.82611497  .00000025  00000-0  00000-0 0  9999
2 28361  54.0857 167.0137 0139186 243.1228 142.0897  2.00563808121283
1 28361U 04023A   21012.28862895  .00000020  00000-0  00000-0 0  9995
2 28361  54.0857 166.9950 0139198 243.1377 116.0361  2.00563840121296
1 28361U 04023A   21012.82218531  .00000016  00000-0  00000-0 0  9992
2 28361  54.0858 166.9734 0139212 243.1557 141.2759  2.00563879121309
1 28361U 04023A   21013.36256556  .00000013  00000-0  00000-0 0  9998
2 28361  54.0859 166.9515 0139227 243.1741 171.4427  2.00563920121313
1 28361U 04023A   21013.82067685  .00000013  00000-0  00000-0 0  9992
2 28361  54.0859 166.9329 0139239 243.1895 142.2098  2.00563952121325
1 28361U 04023A   21014.53150509  .00000015  00000-0  00000-0 0  9991
2 28361  54.0860 166.9041 0139256 243.2126 295.4451  2.00564006121331
1 28361U 04023A   21015.53651181  .00000021  00000-0  00000-0 0  9991
2 28361  54.0861 166.8634 0139286 243.2473 301.0828  2.00564083121356
1 28361U 04023A   21015.81332816  .00000024  00000-0  00000-0 0  9996
2 28361  54.0862 166.8522 0139294 243.2583 140.9491  2.00564103121364
1 28361U 04023A   21016.35266821  .00000029  00000-0  00000-0 0  9993
2 28361  54.0862 166.8303 0139306 243.2766 170.3653  2.00564144121371
1 28361U 04023A   21016.80392675  .00000034  00000-0  00000-0 0  9996
2 28361  54.0863 166.8121 0139318 243.2918 136.1845  2.00564176121381
1 28361U 04023A   21017.05115617  .00000037  00000-0  00000-0 0  9996
2 28361  54.0863 166.8021 0139322 243.2979 314.6924  2.00564194121383
1 28361U 04023A   21017.80912851  .00000044  00000-0  00000-0 0  9992
2 28361  54.0864 166.7714 0139339 243.3251 141.9648  2.00564247121400
1 28361U 04023A   21018.80585944  .00000052  00000-0  00000-0 0  9991
2 28361  54.0865 166.7310 0139360 243.3578 141.6295  2.00564312121429
1 28361U 04023A   21019.01759083  .00000053  00000-0  00000-0 0  9993
2 28361  54.0865 166.7225 0139364 243.3629 294.5068  2.00564326121426
1 28361U 04023A   21020.02266895  .00000056  00000-0  00000-0 0  9993
2 28361  54.0866 166.6818 0139387 243.3964 300.1981  2.00564385121446
1 28361U 04023A   21021.79511100  .00000051  00000-0  00000-0 0  9995
2 28361  54.0868 166.6100 0139437 243.4601 139.9410  2.00564476121487
1 28361U 04023A   21022.33664281  .00000048  00000-0  00000+0 0  9990
2 28361  54.0868 166.5881 0139454 243.4800 170.9389  2.00564502121516
1 28361U 04023A   21022.33664281  .00000048  00000-0  00000-0 0  9991
2 28361  54.0868 166.5881 0139454 243.4800 170.9389  2.00564502121493
1 28361U 04023A   21022.78906730  .00000045  00000-0  00000-0 0  9995
2 28361  54.0869 166.5698 0139468 243.4966 137.5993  2.00564520121500
1 28361U 04023A   21023.28742160  .00000042  00000-0  00000-0 0  9993
2 28361  54.0869 166.5496 0139481 243.5150 137.4220  2.00564540121512
1 28361U 04023A   21023.79280317  .00000038  00000-0  00000-0 0  9995
2 28361  54.0869 166.5291 0139494 243.5338 142.3184  2.00564559121522
1 28361U 04023A   21024.78934601  .00000032  00000-0  00000-0 0  9991
2 28361  54.0870 166.4887 0139518 243.5697 141.8453  2.00564597121546
1 28361U 04023A   21025.78279132  .00000028  00000-0  00000+0 0  9997
2 28361  54.0872 166.4485 0139539 243.6048 139.1365  2.00564632121582
1 28361U 04023A   21025.78279132  .00000028  00000-0  00000-0 0  9998
2 28361  54.0872 166.4485 0139539 243.6048 139.1365  2.00564632121560
1 28361U 04023A   21027.27294001  .00000026  00000-0  00000-0 0  9994
2 28361  54.0874 166.3882 0139576 243.6563 135.0610  2.00564689121598
1 28361U 04023A   21027.77472476  .00000027  00000-0  00000-0 0  9994
2 28361  54.0874 166.3679 0139587 243.6735 137.3622  2.00564706121605
1 28361U 04023A   21028.77628021  .00000030  00000-0  00000-0 0  9998
2 28361  54.0876 166.3274 0139609 243.7079 140.5106  2.00564741121629
1 28361U 04023A   21028.99515563  .00000031  00000-0  00000-0 0  9999
2 28361  54.0876 166.3185 0139612 243.7150 298.5446  2.00564745121629
1 28361U 04023A   21029.77466847  .00000036  00000-0  00000-0 0  9991
2 28361  54.0876 166.2869 0139638 243.7428 141.3719  2.00564778121649
1 28361U 04023A   21030.34935442  .00000039  00000-0  00000-0 0  9991
2 28361  54.0877 166.2637 0139655 243.7637 196.3087  2.00564801121650
1 28361U 04023A   21031.25955582  .00000045  00000-0  00000-0 0  9996
2 28361  54.0878 166.2268 0139686 243.7963 133.4963  2.00564838121674
1 28361U 04023A   21033.48114551  .00000052  00000-0  00000+0 0  9993
2 28361  54.0879 166.1368 0139750 243.8767 297.5378  2.00564935121737
1 28361U 04023A   21033.48114551  .00000052  00000-0  00000-0 0  9994
2 28361  54.0879 166.1368 0139750 243.8767 297.5378  2.00564935121715
1 28361U 04023A   21034.31364231  .00000048  00000-0  00000-0 0  9994
2 28361  54.0880 166.1031 0139779 243.9066 178.6211  2.00564979121733
1 28361U 04023A   21034.76088191  .00000045  00000-0  00000-0 0  9998
2 28361  54.0880 166.0850 0139792 243.9219 141.5401  2.00565003121746
1 28361U 04023A   21035.24851238  .00000040  00000-0  00000-0 0  9997
2 28361  54.0880 166.0653 0139807 243.9386 133.6222  2.00565030121753
1 28361U 04023A   21035.72475973  .00000034  00000-0  00000-0 0  9991
2 28361  54.0880 166.0460 0139822 243.9557 117.4849  2.00565057121761
1 28361U 04023A   21036.29368461  .00000025  00000-0  00000-0 0  9997
2 28361  54.0880 166.0230 0139837 243.9759 168.2632  2.00565090121778
1 28361U 04023A   21036.75461080  .00000018  00000-0  00000-0 0  9991
2 28361  54.0881 166.0043 0139852 243.9915 141.0645  2.00565119121788
1 28361U 04023A   21037.29019944  .00000008  00000-0  00000-0 0  9998
2 28361  54.0881 165.9826 0139867 244.0104 167.7736  2.00565153121798
1 28361U 04023A   21037.75209909  .00000000  00000-0  00000-0 0  9993
2 28361  54.0881 165.9639 0139882 244.0261 141.2778  2.00565183121809
1 28361U 04023A   21038.24942998 -.00000008  00000-0  00000-0 0  9999
2 28361  54.0882 165.9437 0139898 244.0433 140.3642  2.00565219121815
1 28361U 04023A   21039.20592094 -.00000021  00000-0  00000-0 0  9999
2 28361  54.0883 165.9050 0139931 244.0774 110.9757  2.00565287121829
1 28361U 04023A   21042.45376447 -.00000025  00000-0  00000+0 0  9995
2 28361  54.0885 165.7735 0140047 244.1981 296.0001  2.00565530121919
1 28361U 04023A   21042.45376447 -.00000025  00000-0  00000-0 0  9996
2 28361  54.0885 165.7735 0140047 244.1981 296.0001  2.00565530121896
1 28361U 04023A   21043.22572075 -.00000018  00000-0  00000-0 0  9999
2 28361  54.0886 165.7422 0140074 244.2278 133.3710  2.00565589121917
1 28361U 04023A   21043.67211012 -.00000014  00000-0  00000-0 0  9995
2 28361  54.0886 165.7241 0140088 244.2441  95.6758  2.00565623121914
1 28361U 04023A   21044.73166237 -.00000002  00000-0  00000-0 0  9998
2 28361  54.0887 165.6813 0140116 244.2827 140.7007  2.00565701121948
1 28361U 04023A   21045.72914718  .00000007  00000-0  00000-0 0  9997
2 28361  54.0887 165.6408 0140143 244.3186 140.9118  2.00565772121962
1 28361U 04023A   21046.72626307  .00000012  00000-0  00000-0 0  9998
2 28361  54.0888 165.6005 0140170 244.3542 140.8571  2.00565838121989
1 28361U 04023A   21047.97248973  .00000013  00000-0  00000-0 0  9996
2 28361  54.0888 165.5500 0140200 244.3957 320.6706  2.00565913122008
1 28361U 04023A   21048.71451883  .00000011  00000-0  00000-0 0  9993
2 28361  54.0888 165.5199 0140226 244.4264 136.4324  2.00565956122020
1 28361U 04023A   21049.68117532  .00000007  00000-0  00000-0 0  9995
2 28361  54.0889 165.4808 0140263 244.4640 114.3826  2.00566005122046
1 28361U 04023A   21051.26330000 -.00000003  00000-0  00000-0 0  9996
2 28361  54.0889 165.4168 0140313 244.5260 176.7165  2.00566080122074
1 28361U 04023A   21051.70648550 -.00000005  00000-0  00000-0 0  9999
2 28361  54.0890 165.3988 0140326 244.5432 136.7078  2.00566100122083
1 28361U 04023A   21052.70851831 -.00000009  00000-0  00000-0 0  9992
2 28361  54.0891 165.3582 0140352 244.5807 140.2028  2.00566143122104
